[
    {
        "Altitude(m)": 555978.2333534969,
        "Argument of Periapsis(deg)": 0.019868973332140504,
        "Eccentricity": 0.0,
        "Inclination(deg)": 53.0,
        "Latitude(deg)": 35.2236014846593,
        "Longitude(deg)": 25.67319568275751,
        "Mean Anomaly(deg)": -226.08882139726722,
        "RAAN(deg)": 339.97043010558406,
        "Satellite Name": "Starlink Shell 1 1502",
        "Satellite Number": 1502,
        "Semi-Major Axis(m)": 6931778.249405717,
        "Time(s)": 570
    },
    {
        "Altitude(m)": 555896.5608192182,
        "Argument of Periapsis(deg)": 0.02021755181165174,
        "Eccentricity": 0.0,
        "Inclination(deg)": 53.0,
        "Latitude(deg)": 34.79595819255784,
        "Longitude(deg)": 26.192206484286203,
        "Mean Anomaly(deg)": -225.46199019371053,
        "RAAN(deg)": 339.9699113355066,
        "Satellite Name": "Starlink Shell 1 1502",
        "Satellite Number": 1502,
        "Semi-Major Axis(m)": 6931778.249405717,
        "Time(s)": 580
    },
    {
        "Altitude(m)": 555815.3526100185,
        "Argument of Periapsis(deg)": 0.020566130291162974,
        "Eccentricity": 0.0,
        "Inclination(deg)": 53.0,
        "Latitude(deg)": 34.365731627820196,
        "Longitude(deg)": 26.705449834471,
        "Mean Anomaly(deg)": -224.8351589901538,
        "RAAN(deg)": 339.96939256542913,
        "Satellite Name": "Starlink Shell 1 1502",
        "Satellite Number": 1502,
        "Semi-Major Axis(m)": 6931778.249405717,
        "Time(s)": 590
    },
    {
        "Altitude(m)": 555734.6644104422,
        "Argument of Periapsis(deg)": 0.020914708770674213,
        "Eccentricity": 0.0,
        "Inclination(deg)": 53.0,
        "Latitude(deg)": 33.93298777717451,
        "Longitude(deg)": 27.21304247958892,
        "Mean Anomaly(deg)": -224.20832778659715,
        "RAAN(deg)": 339.96887379535167,
        "Satellite Name": "Starlink Shell 1 1502",
        "Satellite Number": 1502,
        "Semi-Major Axis(m)": 6931778.249405717,
        "Time(s)": 600
    },
    {
        "Altitude(m)": 555654.5518475297,
        "Argument of Periapsis(deg)": 0.021263287250185448,
        "Eccentricity": 0.0,
        "Inclination(deg)": 53.0,
        "Latitude(deg)": 33.497791137562885,
        "Longitude(deg)": 27.71510027598163,
        "Mean Anomaly(deg)": -223.58149658304046,
        "RAAN(deg)": 339.96835502527415,
        "Satellite Name": "Starlink Shell 1 1502",
        "Satellite Number": 1502,
        "Semi-Major Axis(m)": 6931778.249405717,
        "Time(s)": 610
    },
    {
        "Altitude(m)": 555575.0704619611,
        "Argument of Periapsis(deg)": 0.021611865729696686,
        "Eccentricity": 0.0,
        "Inclination(deg)": 53.0,
        "Latitude(deg)": 33.06020474869606,
        "Longitude(deg)": 28.211738624508857,
        "Mean Anomaly(deg)": -222.95466537948363,
        "RAAN(deg)": 339.96783625519674,
        "Satellite Name": "Starlink Shell 1 1502",
        "Satellite Number": 1502,
        "Semi-Major Axis(m)": 6931778.249405717,
        "Time(s)": 620
    },
    {
        "Altitude(m)": 555496.275679205,
        "Argument of Periapsis(deg)": 0.02196044420920792,
        "Eccentricity": 0.0,
        "Inclination(deg)": 53.0,
        "Latitude(deg)": 32.6202902258354,
        "Longitude(deg)": 28.703071231727314,
        "Mean Anomaly(deg)": -222.32783417592697,
        "RAAN(deg)": 339.9673174851192,
        "Satellite Name": "Starlink Shell 1 1502",
        "Satellite Number": 1502,
        "Semi-Major Axis(m)": 6931778.249405717,
        "Time(s)": 630
    },
    {
        "Altitude(m)": 555418.2227807138,
        "Argument of Periapsis(deg)": 0.02230902268871916,
        "Eccentricity": 0.0,
        "Inclination(deg)": 53.0,
        "Latitude(deg)": 32.178107792712396,
        "Longitude(deg)": 29.189211399739154,
        "Mean Anomaly(deg)": -221.70100297237028,
        "RAAN(deg)": 339.96679871504176,
        "Satellite Name": "Starlink Shell 1 1502",
        "Satellite Number": 1502,
        "Semi-Major Axis(m)": 6931778.249405717,
        "Time(s)": 640
    },
    {
        "Altitude(m)": 555340.9668750695,
        "Argument of Periapsis(deg)": 0.022657601168230398,
        "Eccentricity": 0.0,
        "Inclination(deg)": 53.0,
        "Latitude(deg)": 31.733716314493183,
        "Longitude(deg)": 29.670270801331075,
        "Mean Anomaly(deg)": -221.07417176881347,
        "RAAN(deg)": 339.9662799449643,
        "Satellite Name": "Starlink Shell 1 1502",
        "Satellite Number": 1502,
        "Semi-Major Axis(m)": 6931778.249405717,
        "Time(s)": 650
    },
    {
        "Altitude(m)": 555264.5628692473,
        "Argument of Periapsis(deg)": 0.023006179647741636,
        "Eccentricity": 0.0,
        "Inclination(deg)": 53.0,
        "Latitude(deg)": 31.28717333071587,
        "Longitude(deg)": 30.14635994238998,
        "Mean Anomaly(deg)": -220.44734056525678,
        "RAAN(deg)": 339.96576117488684,
        "Satellite Name": "Starlink Shell 1 1502",
        "Satellite Number": 1502,
        "Semi-Major Axis(m)": 6931778.249405717,
        "Time(s)": 660
    },
    {
        "Altitude(m)": 555189.0654398837,
        "Argument of Periapsis(deg)": 0.023354758127252868,
        "Eccentricity": 0.0,
        "Inclination(deg)": 53.0,
        "Latitude(deg)": 30.838535088127085,
        "Longitude(deg)": 30.61758863020232,
        "Mean Anomaly(deg)": -219.8205093617001,
        "RAAN(deg)": 339.9652424048094,
        "Satellite Name": "Starlink Shell 1 1502",
        "Satellite Number": 1502,
        "Semi-Major Axis(m)": 6931778.249405717,
        "Time(s)": 670
    },
    {
        "Altitude(m)": 555114.5290046216,
        "Argument of Periapsis(deg)": 0.023703336606764106,
        "Eccentricity": 0.0,
        "Inclination(deg)": 53.0,
        "Latitude(deg)": 30.387856573353677,
        "Longitude(deg)": 31.084064934357595,
        "Mean Anomaly(deg)": -219.19367815814337,
        "RAAN(deg)": 339.9647236347319,
        "Satellite Name": "Starlink Shell 1 1502",
        "Satellite Number": 1502,
        "Semi-Major Axis(m)": 6931778.249405717,
        "Time(s)": 680
    },
    {
        "Altitude(m)": 555041.0076935608,
        "Argument of Periapsis(deg)": 0.024051915086275345,
        "Eccentricity": 0.0,
        "Inclination(deg)": 53.0,
        "Latitude(deg)": 29.935191545357096,
        "Longitude(deg)": 31.545895665623327,
        "Mean Anomaly(deg)": -218.5668469545866,
        "RAAN(deg)": 339.9642048646544,
        "Satellite Name": "Starlink Shell 1 1502",
        "Satellite Number": 1502,
        "Semi-Major Axis(m)": 6931778.249405717,
        "Time(s)": 690
    },
    {
        "Altitude(m)": 554968.5553207688,
        "Argument of Periapsis(deg)": 0.024400493565786583,
        "Eccentricity": 0.0,
        "Inclination(deg)": 53.0,
        "Latitude(deg)": 29.48059256761807,
        "Longitude(deg)": 32.00318685955534,
        "Mean Anomaly(deg)": -217.94001575102996,
        "RAAN(deg)": 339.96368609457693,
        "Satellite Name": "Starlink Shell 1 1502",
        "Satellite Number": 1502,
        "Semi-Major Axis(m)": 6931778.249405717,
        "Time(s)": 700
    },
    {
        "Altitude(m)": 554897.225355949,
        "Argument of Periapsis(deg)": 0.024749072045297815,
        "Eccentricity": 0.0,
        "Inclination(deg)": 53.0,
        "Latitude(deg)": 29.02411104000415,
        "Longitude(deg)": 32.456042751623826,
        "Mean Anomaly(deg)": -217.3131845474733,
        "RAAN(deg)": 339.96316732449947,
        "Satellite Name": "Starlink Shell 1 1502",
        "Satellite Number": 1502,
        "Semi-Major Axis(m)": 6931778.249405717,
        "Time(s)": 710
    },
    {
        "Altitude(m)": 554827.0708961755,
        "Argument of Periapsis(deg)": 0.025097650524809053,
        "Eccentricity": 0.0,
        "Inclination(deg)": 53.0,
        "Latitude(deg)": 28.56579723028691,
        "Longitude(deg)": 32.904566269280494,
        "Mean Anomaly(deg)": -216.68635334391652,
        "RAAN(deg)": 339.962648554422,
        "Satellite Name": "Starlink Shell 1 1502",
        "Satellite Number": 1502,
        "Semi-Major Axis(m)": 6931778.249405717,
        "Time(s)": 720
    },
    {
        "Altitude(m)": 554758.1446378304,
        "Argument of Periapsis(deg)": 0.02544622900432029,
        "Eccentricity": 0.0,
        "Inclination(deg)": 53.0,
        "Latitude(deg)": 28.105700305272087,
        "Longitude(deg)": 33.34885952778446,
        "Mean Anomaly(deg)": -216.05952214035977,
        "RAAN(deg)": 339.9621297843445,
        "Satellite Name": "Starlink Shell 1 1502",
        "Satellite Number": 1502,
        "Semi-Major Axis(m)": 6931778.249405717,
        "Time(s)": 730
    },
    {
        "Altitude(m)": 554690.4988486514,
        "Argument of Periapsis(deg)": 0.02579480748383153,
        "Eccentricity": 0.0,
        "Inclination(deg)": 53.0,
        "Latitude(deg)": 27.643868361509476,
        "Longitude(deg)": 33.789022816626044,
        "Mean Anomaly(deg)": -215.4326909368031,
        "RAAN(deg)": 339.9616110142671,
        "Satellite Name": "Starlink Shell 1 1502",
        "Satellite Number": 1502,
        "Semi-Major Axis(m)": 6931778.249405717,
        "Time(s)": 740
    },
    {
        "Altitude(m)": 554624.1853399773,
        "Argument of Periapsis(deg)": 0.026143385963342765,
        "Eccentricity": 0.0,
        "Inclination(deg)": 53.0,
        "Latitude(deg)": 27.180348455562793,
        "Longitude(deg)": 34.225155102023756,
        "Mean Anomaly(deg)": -214.80585973324636,
        "RAAN(deg)": 339.96109224418956,
        "Satellite Name": "Starlink Shell 1 1502",
        "Satellite Number": 1502,
        "Semi-Major Axis(m)": 6931778.249405717,
        "Time(s)": 750
    }
]